[{"OBJECT_NAME":"ONEWEB-0604","OBJECT_ID":"2022-166AC","EPOCH":"2026-03-09T21:45:13.597632","MEAN_MOTION":13.21824328,"ECCENTRICITY":0.00016908,"INCLINATION":87.9176,"RA_OF_ASC_NODE":263.7612,"ARG_OF_PERICENTER":92.9168,"MEAN_ANOMALY":267.2159,"EPHEMERIS_TYPE":0,"CLASSIFICATION_TYPE":"U","NORAD_CAT_ID":54668,"ELEMENT_SET_NO":999,"REV_AT_EPOCH":15832,"BSTAR":1.0684378e-5,"MEAN_MOTION_DOT":1.7e-7,"MEAN_MOTION_DDOT":0},{"OBJECT_NAME":"DELTA 1 DEB","OBJECT_ID":"1975-052FM","EPOCH":"2026-03-09T06:49:09.931872","MEAN_MOTION":13.33761601,"ECCENTRICITY":0.00626615,"INCLINATION":99.8119,"RA_OF_ASC_NODE":194.4606,"ARG_OF_PERICENTER":87.0914,"MEAN_ANOMALY":303.3057,"EPHEMERIS_TYPE":0,"CLASSIFICATION_TYPE":"U","NORAD_CAT_ID":21492,"ELEMENT_SET_NO":999,"REV_AT_EPOCH":69541,"BSTAR":0.00027734431,"MEAN_MOTION_DOT":9.7e-7,"MEAN_MOTION_DDOT":0}]
